ORBCOMM FM115           
1 41186U 15081H   24151.81413675  .00001388  00000+0  31673-3 0  9995
2 41186  47.0000  55.7680 0000200 161.4453 198.6441 14.60760251451836
ORBCOMM FM108           
1 41187U 15081J   24150.75186777  .00001579  00000+0  38753-3 0  9996
2 41187  47.0041 115.7125 0003207 337.4751  22.5993 14.56669003450866
ORBCOMM FM117           
1 41188U 15081K   24151.26681230  .00000783  00000+0  21130-3 0  9995
2 41188  47.0003 112.1773 0003508 353.0143   7.0692 14.56623197450989
ORBCOMM FM116           
1 41189U 15081L   24152.14706442  .00001223  00000+0  30847-3 0  9992
2 41189  47.0007 197.8458 0000818 101.8061 258.2916 14.56696693449992
